{
  "norad_id": 63789,
  "name": "STARLINK-33875",
  "history": [
    {
      "epoch": "2026-03-28T21:50:20.243328Z",
      "apogee_km": 483.011532692778,
      "perigee_km": 482.8795254649194,
      "latitude_deg": -9.830257350120314e-06,
      "longitude_deg": 149.90061231349605,
      "height_km": 482.7835654492335,
      "semi_major_axis_km": 6861.082529078849,
      "eccentricity": 9.62e-06,
      "inclination_deg": 42.9997,
      "raan_deg": 303.8086,
      "arg_perigee_deg": 198.3653,
      "mean_anomaly_deg": 161.7195,
      "mean_motion_rev_day": 15.27614588
    },
    {
      "epoch": "2026-03-28T23:24:29.499552Z",
      "apogee_km": 484.0342121364547,
      "perigee_km": 481.90864074594356,
      "latitude_deg": 3.653283506944434e-07,
      "longitude_deg": 125.9306092530043,
      "height_km": 482.90118072831586,
      "semi_major_axis_km": 6861.108426441198,
      "eccentricity": 0.0001549,
      "inclination_deg": 43.0011,
      "raan_deg": 303.4416,
      "arg_perigee_deg": 261.7313,
      "mean_anomaly_deg": 98.3363,
      "mean_motion_rev_day": 15.27605939
    }
  ]
}